[{"OBJECT_NAME":"STARLINK-4420","OBJECT_ID":"2022-105G","EPOCH":"2026-03-09T16:08:00.093120","MEAN_MOTION":15.05644598,"ECCENTRICITY":0.00020924,"INCLINATION":97.6024,"RA_OF_ASC_NODE":311.1617,"ARG_OF_PERICENTER":91.2741,"MEAN_ANOMALY":268.8726,"EPHEMERIS_TYPE":0,"CLASSIFICATION_TYPE":"U","NORAD_CAT_ID":53654,"ELEMENT_SET_NO":999,"REV_AT_EPOCH":19329,"BSTAR":3.3005245e-5,"MEAN_MOTION_DOT":4.15e-6,"MEAN_MOTION_DDOT":0},{"OBJECT_NAME":"CZ-6A DEB","OBJECT_ID":"2022-151UT","EPOCH":"2026-03-09T17:50:02.810976","MEAN_MOTION":14.9898329,"ECCENTRICITY":0.00453187,"INCLINATION":98.6222,"RA_OF_ASC_NODE":145.5138,"ARG_OF_PERICENTER":180.208,"MEAN_ANOMALY":179.9129,"EPHEMERIS_TYPE":0,"CLASSIFICATION_TYPE":"U","NORAD_CAT_ID":55003,"ELEMENT_SET_NO":999,"REV_AT_EPOCH":17561,"BSTAR":0.0047870048,"MEAN_MOTION_DOT":0.00059614,"MEAN_MOTION_DDOT":0}]
